STARLINK-36309          
1 68325U 26059E   26092.71329766  .00380392  00000+0  18320-2 0  9996
2 68325  53.1599 242.4582 0000913   9.8084 350.2956 15.81051117  1772
STARLINK-37206          
1 68326U 26059F   26092.71255418  .00284716  00000+0  13948-2 0  9993
2 68326  53.1593 242.4531 0001620  47.2414 312.8745 15.80937794  1773
STARLINK-37199          
1 68327U 26059G   26092.77501030  .00267646  00000+0  13040-2 0  9990
2 68327  53.1594 242.1317 0001248 190.2929 169.8068 15.81104898  1781
STARLINK-36245          
1 68328U 26059H   26092.77351838  .00295113  00000+0  14388-2 0  9996
2 68328  53.1594 242.1222 0001263  80.2690 279.8475 15.81014949  1788
STARLINK-37204          
1 68329U 26059J   26092.77426572  .00464977  00000+0  22131-2 0  9996
2 68329  53.1588 242.1261 0000735  47.0857 313.0228 15.81084179  1783
STARLINK-37001          
1 68330U 26059K   26092.77276780  .00467780  00000+0  22265-2 0  9995
2 68330  53.1595 242.1165 0000934  92.1924 267.9205 15.81076128  1780
STARLINK-36932          
1 68331U 26059L   26092.77201642  .00316412  00000+0  15373-2 0  9998
2 68331  53.1598 242.1114 0001068  57.4929 302.6197 15.81032243  1783
STARLINK-37205          
1 68332U 26059M   26092.77126594  .00338919  00000+0  16418-2 0  9998
2 68332  53.1583 242.1058 0000843  24.6085 335.4978 15.81035013  1783
STARLINK-37180          
1 68333U 26059N   26092.77059718  .04088519  00000+0  17517-1 0  9994
2 68333  53.1588 242.0969 0004743 106.4687 253.6857 15.80619216  1788
STARLINK-37191          
1 68334U 26059P   26092.83298278  .00415204  00000+0  19895-2 0  9991
2 68334  53.1591 241.7791 0001032  68.5903 291.5230 15.81070337  1792
STARLINK-37217          
1 68335U 26059Q   26092.83223093  .00301928  00000+0  14689-2 0  9998
2 68335  53.1603 241.7751 0000764  70.8419 289.2686 15.81041432  1795
STARLINK-37143          
1 68336U 26059R   26092.83148377  .00325245  00000+0  15783-2 0  9994
2 68336  53.1603 241.7703 0001049  64.5923 295.5208 15.81035197  1791
