CCSDS_OMM_VERS = 2.0
CREATION_DATE  = 
ORIGINATOR     = 

OBJECT_NAME    = STARLINK-36309
OBJECT_ID      = 2026-059E
CENTER_NAME    = EARTH
REF_FRAME      = TEME
TIME_SYSTEM    = UTC
MEAN_ELEMENT_THEORY = SGP/SGP4

EPOCH          = 2026-04-02T17:07:08.917824
MEAN_MOTION    = 15.81051117
ECCENTRICITY   = .0000913
INCLINATION    = 53.1599
RA_OF_ASC_NODE = 242.4582
ARG_OF_PERICENTER = 9.8084
MEAN_ANOMALY   = 350.2956

EPHEMERIS_TYPE = 0
CLASSIFICATION_TYPE = U
NORAD_CAT_ID   = 68325
ELEMENT_SET_NO = 999
REV_AT_EPOCH   = 177
BSTAR          = .1832E-2
MEAN_MOTION_DOT = .380392E-2
MEAN_MOTION_DDOT = 0

CCSDS_OMM_VERS = 2.0
CREATION_DATE  = 
ORIGINATOR     = 

OBJECT_NAME    = STARLINK-37206
OBJECT_ID      = 2026-059F
CENTER_NAME    = EARTH
REF_FRAME      = TEME
TIME_SYSTEM    = UTC
MEAN_ELEMENT_THEORY = SGP/SGP4

EPOCH          = 2026-04-02T17:06:04.681152
MEAN_MOTION    = 15.80937794
ECCENTRICITY   = .000162
INCLINATION    = 53.1593
RA_OF_ASC_NODE = 242.4531
ARG_OF_PERICENTER = 47.2414
MEAN_ANOMALY   = 312.8745

EPHEMERIS_TYPE = 0
CLASSIFICATION_TYPE = U
NORAD_CAT_ID   = 68326
ELEMENT_SET_NO = 999
REV_AT_EPOCH   = 177
BSTAR          = .13948E-2
MEAN_MOTION_DOT = .284716E-2
MEAN_MOTION_DDOT = 0

CCSDS_OMM_VERS = 2.0
CREATION_DATE  = 
ORIGINATOR     = 

OBJECT_NAME    = STARLINK-37199
OBJECT_ID      = 2026-059G
CENTER_NAME    = EARTH
REF_FRAME      = TEME
TIME_SYSTEM    = UTC
MEAN_ELEMENT_THEORY = SGP/SGP4

EPOCH          = 2026-04-02T18:36:00.889920
MEAN_MOTION    = 15.81104898
ECCENTRICITY   = .0001248
INCLINATION    = 53.1594
RA_OF_ASC_NODE = 242.1317
ARG_OF_PERICENTER = 190.2929
MEAN_ANOMALY   = 169.8068

EPHEMERIS_TYPE = 0
CLASSIFICATION_TYPE = U
NORAD_CAT_ID   = 68327
ELEMENT_SET_NO = 999
REV_AT_EPOCH   = 178
BSTAR          = .1304E-2
MEAN_MOTION_DOT = .267646E-2
MEAN_MOTION_DDOT = 0

CCSDS_OMM_VERS = 2.0
CREATION_DATE  = 
ORIGINATOR     = 

OBJECT_NAME    = STARLINK-36245
OBJECT_ID      = 2026-059H
CENTER_NAME    = EARTH
REF_FRAME      = TEME
TIME_SYSTEM    = UTC
MEAN_ELEMENT_THEORY = SGP/SGP4

EPOCH          = 2026-04-02T18:33:51.988032
MEAN_MOTION    = 15.81014949
ECCENTRICITY   = .0001263
INCLINATION    = 53.1594
RA_OF_ASC_NODE = 242.1222
ARG_OF_PERICENTER = 80.2690
MEAN_ANOMALY   = 279.8475

EPHEMERIS_TYPE = 0
CLASSIFICATION_TYPE = U
NORAD_CAT_ID   = 68328
ELEMENT_SET_NO = 999
REV_AT_EPOCH   = 178
BSTAR          = .14388E-2
MEAN_MOTION_DOT = .295113E-2
MEAN_MOTION_DDOT = 0

CCSDS_OMM_VERS = 2.0
CREATION_DATE  = 
ORIGINATOR     = 

OBJECT_NAME    = STARLINK-37204
OBJECT_ID      = 2026-059J
CENTER_NAME    = EARTH
REF_FRAME      = TEME
TIME_SYSTEM    = UTC
MEAN_ELEMENT_THEORY = SGP/SGP4

EPOCH          = 2026-04-02T18:34:56.558208
MEAN_MOTION    = 15.81084179
ECCENTRICITY   = .0000735
INCLINATION    = 53.1588
RA_OF_ASC_NODE = 242.1261
ARG_OF_PERICENTER = 47.0857
MEAN_ANOMALY   = 313.0228

EPHEMERIS_TYPE = 0
CLASSIFICATION_TYPE = U
NORAD_CAT_ID   = 68329
ELEMENT_SET_NO = 999
REV_AT_EPOCH   = 178
BSTAR          = .22131E-2
MEAN_MOTION_DOT = .464977E-2
MEAN_MOTION_DDOT = 0

CCSDS_OMM_VERS = 2.0
CREATION_DATE  = 
ORIGINATOR     = 

OBJECT_NAME    = STARLINK-37001
OBJECT_ID      = 2026-059K
CENTER_NAME    = EARTH
REF_FRAME      = TEME
TIME_SYSTEM    = UTC
MEAN_ELEMENT_THEORY = SGP/SGP4

EPOCH          = 2026-04-02T18:32:47.137920
MEAN_MOTION    = 15.81076128
ECCENTRICITY   = .0000934
INCLINATION    = 53.1595
RA_OF_ASC_NODE = 242.1165
ARG_OF_PERICENTER = 92.1924
MEAN_ANOMALY   = 267.9205

EPHEMERIS_TYPE = 0
CLASSIFICATION_TYPE = U
NORAD_CAT_ID   = 68330
ELEMENT_SET_NO = 999
REV_AT_EPOCH   = 178
BSTAR          = .22265E-2
MEAN_MOTION_DOT = .46778E-2
MEAN_MOTION_DDOT = 0

CCSDS_OMM_VERS = 2.0
CREATION_DATE  = 
ORIGINATOR     = 

OBJECT_NAME    = STARLINK-36932
OBJECT_ID      = 2026-059L
CENTER_NAME    = EARTH
REF_FRAME      = TEME
TIME_SYSTEM    = UTC
MEAN_ELEMENT_THEORY = SGP/SGP4

EPOCH          = 2026-04-02T18:31:42.218688
MEAN_MOTION    = 15.81032243
ECCENTRICITY   = .0001068
INCLINATION    = 53.1598
RA_OF_ASC_NODE = 242.1114
ARG_OF_PERICENTER = 57.4929
MEAN_ANOMALY   = 302.6197

EPHEMERIS_TYPE = 0
CLASSIFICATION_TYPE = U
NORAD_CAT_ID   = 68331
ELEMENT_SET_NO = 999
REV_AT_EPOCH   = 178
BSTAR          = .15373E-2
MEAN_MOTION_DOT = .316412E-2
MEAN_MOTION_DDOT = 0

CCSDS_OMM_VERS = 2.0
CREATION_DATE  = 
ORIGINATOR     = 

OBJECT_NAME    = STARLINK-37205
OBJECT_ID      = 2026-059M
CENTER_NAME    = EARTH
REF_FRAME      = TEME
TIME_SYSTEM    = UTC
MEAN_ELEMENT_THEORY = SGP/SGP4

EPOCH          = 2026-04-02T18:30:37.377216
MEAN_MOTION    = 15.81035013
ECCENTRICITY   = .0000843
INCLINATION    = 53.1583
RA_OF_ASC_NODE = 242.1058
ARG_OF_PERICENTER = 24.6085
MEAN_ANOMALY   = 335.4978

EPHEMERIS_TYPE = 0
CLASSIFICATION_TYPE = U
NORAD_CAT_ID   = 68332
ELEMENT_SET_NO = 999
REV_AT_EPOCH   = 178
BSTAR          = .16418E-2
MEAN_MOTION_DOT = .338919E-2
MEAN_MOTION_DDOT = 0

CCSDS_OMM_VERS = 2.0
CREATION_DATE  = 
ORIGINATOR     = 

OBJECT_NAME    = STARLINK-37180
OBJECT_ID      = 2026-059N
CENTER_NAME    = EARTH
REF_FRAME      = TEME
TIME_SYSTEM    = UTC
MEAN_ELEMENT_THEORY = SGP/SGP4

EPOCH          = 2026-04-02T18:29:39.596352
MEAN_MOTION    = 15.80619216
ECCENTRICITY   = .0004743
INCLINATION    = 53.1588
RA_OF_ASC_NODE = 242.0969
ARG_OF_PERICENTER = 106.4687
MEAN_ANOMALY   = 253.6857

EPHEMERIS_TYPE = 0
CLASSIFICATION_TYPE = U
NORAD_CAT_ID   = 68333
ELEMENT_SET_NO = 999
REV_AT_EPOCH   = 178
BSTAR          = .17517E-1
MEAN_MOTION_DOT = .4088519E-1
MEAN_MOTION_DDOT = 0

CCSDS_OMM_VERS = 2.0
CREATION_DATE  = 
ORIGINATOR     = 

OBJECT_NAME    = STARLINK-37191
OBJECT_ID      = 2026-059P
CENTER_NAME    = EARTH
REF_FRAME      = TEME
TIME_SYSTEM    = UTC
MEAN_ELEMENT_THEORY = SGP/SGP4

EPOCH          = 2026-04-02T19:59:29.712192
MEAN_MOTION    = 15.81070337
ECCENTRICITY   = .0001032
INCLINATION    = 53.1591
RA_OF_ASC_NODE = 241.7791
ARG_OF_PERICENTER = 68.5903
MEAN_ANOMALY   = 291.5230

EPHEMERIS_TYPE = 0
CLASSIFICATION_TYPE = U
NORAD_CAT_ID   = 68334
ELEMENT_SET_NO = 999
REV_AT_EPOCH   = 179
BSTAR          = .19895E-2
MEAN_MOTION_DOT = .415204E-2
MEAN_MOTION_DDOT = 0

CCSDS_OMM_VERS = 2.0
CREATION_DATE  = 
ORIGINATOR     = 

OBJECT_NAME    = STARLINK-37217
OBJECT_ID      = 2026-059Q
CENTER_NAME    = EARTH
REF_FRAME      = TEME
TIME_SYSTEM    = UTC
MEAN_ELEMENT_THEORY = SGP/SGP4

EPOCH          = 2026-04-02T19:58:24.752352
MEAN_MOTION    = 15.81041432
ECCENTRICITY   = .0000764
INCLINATION    = 53.1603
RA_OF_ASC_NODE = 241.7751
ARG_OF_PERICENTER = 70.8419
MEAN_ANOMALY   = 289.2686

EPHEMERIS_TYPE = 0
CLASSIFICATION_TYPE = U
NORAD_CAT_ID   = 68335
ELEMENT_SET_NO = 999
REV_AT_EPOCH   = 179
BSTAR          = .14689E-2
MEAN_MOTION_DOT = .301928E-2
MEAN_MOTION_DDOT = 0

CCSDS_OMM_VERS = 2.0
CREATION_DATE  = 
ORIGINATOR     = 

OBJECT_NAME    = STARLINK-37143
OBJECT_ID      = 2026-059R
CENTER_NAME    = EARTH
REF_FRAME      = TEME
TIME_SYSTEM    = UTC
MEAN_ELEMENT_THEORY = SGP/SGP4

EPOCH          = 2026-04-02T19:57:20.197728
MEAN_MOTION    = 15.81035197
ECCENTRICITY   = .0001049
INCLINATION    = 53.1603
RA_OF_ASC_NODE = 241.7703
ARG_OF_PERICENTER = 64.5923
MEAN_ANOMALY   = 295.5208

EPHEMERIS_TYPE = 0
CLASSIFICATION_TYPE = U
NORAD_CAT_ID   = 68336
ELEMENT_SET_NO = 999
REV_AT_EPOCH   = 179
BSTAR          = .15783E-2
MEAN_MOTION_DOT = .325245E-2
MEAN_MOTION_DDOT = 0

